LEMUR-2-DEMBITZ         
1 42842U 17042T   26068.47492167  .00020231  00000+0  76561-3 0  9991
2 42842  97.3807 250.9241 0006961  17.1421 343.0051 15.26947128473114
STARLINK-30263          
1 57642U 23122L   26068.44532009  .00000526  00000+0  29304-4 0  9997
2 57642  43.0011  93.5321 0001286 265.2703  94.8002 15.26738900142179
